$$SOE
2460728.500000000, A.D. 2025-Feb-22 00:00:00.0000, -3.531316241799544E+08, -2.135393000675428E+08, -2.755772239456056E+07,
2460735.500000000, A.D. 2025-Mar-01 00:00:00.0000, -3.468285808847594E+08, -2.212466469701003E+08, -2.812066658434504E+07,
2460742.500000000, A.D. 2025-Mar-08 00:00:00.0000, -3.402853934551516E+08, -2.288008529232907E+08, -2.866413928877948E+07,
2460749.500000000, A.D. 2025-Mar-15 00:00:00.0000, -3.335043571895602E+08, -2.361951845918939E+08, -2.918757649515581E+07,
2460756.500000000, A.D. 2025-Mar-22 00:00:00.0000, -3.264879136863772E+08, -2.434228433733994E+08, -2.969041145124741E+07,
2460763.500000000, A.D. 2025-Mar-29 00:00:00.0000, -3.192386587606882E+08, -2.504769661345981E+08, -3.017207478972767E+07,
2460770.500000000, A.D. 2025-Apr-05 00:00:00.0000, -3.117593490726520E+08, -2.573506253010437E+08, -3.063199476668786E+07,
2460777.500000000, A.D. 2025-Apr-12 00:00:00.0000, -3.040529094082603E+08, -2.640368282189240E+08, -3.106959743189149E+07,
2460784.500000000, A.D. 2025-Apr-19 00:00:00.0000, -2.961224408117473E+08, -2.705285166954777E+08, -3.148430678818171E+07,
2460791.500000000, A.D. 2025-Apr-26 00:00:00.0000, -2.879712293077980E+08, -2.768185669491526E+08, -3.187554498419519E+07,
2460798.500000000, A.D. 2025-May-03 00:00:00.0000, -2.796027551085016E+08, -2.828997899833877E+08, -3.224273255226494E+07,
2460805.500000000, A.D. 2025-May-10 00:00:00.0000, -2.710207022851140E+08, -2.887649324139407E+08, -3.258528869708543E+07,
2460812.500000000, A.D. 2025-May-17 00:00:00.0000, -2.622289688774562E+08, -2.944066778345438E+08, -3.290263164626789E+07,
2460819.500000000, A.D. 2025-May-24 00:00:00.0000, -2.532316772773393E+08, -2.998176488231470E+08, -3.319417908813033E+07,
2460826.500000000, A.D. 2025-May-31 00:00:00.0000, -2.440331844779557E+08, -3.049904093286613E+08, -3.345934871476741E+07,
2460833.500000000, A.D. 2025-Jun-07 00:00:00.0000, -2.346380925975663E+08, -3.099174662871691E+08, -3.369755874034117E+07,
2460840.500000000, A.D. 2025-Jun-14 00:00:00.0000, -2.250512620456600E+08, -3.145912711917671E+08, -3.390822823756444E+07,
2460847.500000000, A.D. 2025-Jun-21 00:00:00.0000, -2.152778261152184E+08, -3.190042249507100E+08, -3.409077767733186E+07,
2460854.500000000, A.D. 2025-Jun-28 00:00:00.0000, -2.053232038716406E+08, -3.231486843387343E+08, -3.424462982083723E+07,
2460861.500000000, A.D. 2025-Jul-05 00:00:00.0000, -1.951931128501834E+08, -3.270169679581166E+08, -3.436921065547226E+07,
2460868.500000000, A.D. 2025-Jul-12 00:00:00.0000, -1.848935827419780E+08, -3.306013625911762E+08, -3.446395033767003E+07,
2460875.500000000, A.D. 2025-Jul-19 00:00:00.0000, -1.744309698611604E+08, -3.338941306004419E+08, -3.452828421385956E+07,
2460882.500000000, A.D. 2025-Jul-26 00:00:00.0000, -1.638119721576926E+08, -3.368875185203315E+08, -3.456165395066014E+07,
2460889.500000000, A.D. 2025-Aug-02 00:00:00.0000, -1.530436446775288E+08, -3.395737669131030E+08, -3.456350878642923E+07,
2460896.500000000, A.D. 2025-Aug-09 00:00:00.0000, -1.421334154062635E+08, -3.419451216045252E+08, -3.453330691581848E+07,
2460903.500000000, A.D. 2025-Aug-16 00:00:00.0000, -1.310891013698387E+08, -3.439938464682224E+08, -3.447051702797082E+07,
2460910.500000000, A.D. 2025-Aug-23 00:00:00.0000, -1.199189246389860E+08, -3.457122378523234E+08, -3.437462003228351E+07,
2460917.500000000, A.D. 2025-Aug-30 00:00:00.0000, -1.086315278349958E+08, -3.470926400486997E+08, -3.424511095202215E+07,
2460924.500000000, A.D. 2025-Sep-06 00:00:00.0000, -9.723599046707700E+07, -3.481274609218580E+08, -3.408150078233409E+07,
2460931.500000000, A.D. 2025-Sep-13 00:00:00.0000, -8.574184766723369E+07, -3.488091902998639E+08, -3.388331837060392E+07,
2460938.500000000, A.D. 2025-Sep-20 00:00:00.0000, -7.415910792662875E+07, -3.491304228954004E+08, -3.365011276226003E+07,
2460945.500000000, A.D. 2025-Sep-27 00:00:00.0000, -6.249826863445862E+07, -3.490838827720251E+08, -3.338145586321583E+07,
2460952.500000000, A.D. 2025-Oct-04 00:00:00.0000, -5.077033127541296E+07, -3.486624489408969E+08, -3.307694519747898E+07,
2460959.500000000, A.D. 2025-Oct-11 00:00:00.0000, -3.898681647567260E+07, -3.478591831510547E+08, -3.273620680935057E+07,
2460966.500000000, A.D. 2025-Oct-18 00:00:00.0000, -2.715977840538999E+07, -3.466673602613049E+08, -3.235889836416288E+07,
2460973.500000000, A.D. 2025-Oct-25 00:00:00.0000, -1.530181816288427E+07, -3.450805012867127E+08, -3.194471246358970E+07,
2460980.500000000, A.D. 2025-Nov-01 00:00:00.0000, -3.426095836613986E+06, -3.430924091962371E+08, -3.149338018056165E+07,
2460987.500000000, A.D. 2025-Nov-08 00:00:00.0000, 8.453659083970943E+06, -3.406972075710856E+08, -3.100467482051401E+07,
2460994.500000000, A.D. 2025-Nov-15 00:00:00.0000, 2.032313941999408E+07, -3.378893822419729E+08, -3.047841592588358E+07,
2461001.500000000, A.D. 2025-Nov-22 00:00:00.0000, 3.216745489274893E+07, -3.346638257192382E+08, -2.991447353815243E+07,
2461008.500000000, A.D. 2025-Nov-29 00:00:00.0000, 4.397112982138173E+07, -3.310158832826543E+08, -2.931277260224977E+07,
2461015.500000000, A.D. 2025-Dec-06 00:00:00.0000, 5.571810206451070E+07, -3.269414008293857E+08, -2.867329730292529E+07,
2461022.500000000, A.D. 2025-Dec-13 00:00:00.0000, 6.739172408235478E+07, -3.224367777672697E+08, -2.799609563114062E+07,
2461029.500000000, A.D. 2025-Dec-20 00:00:00.0000, 7.897477008214177E+07, -3.174990237995440E+08, -2.728128439533173E+07,
2461036.500000000, A.D. 2025-Dec-27 00:00:00.0000, 9.044944866165610E+07, -3.121258168241726E+08, -2.652905433947806E+07,
2461043.500000000, A.D. 2026-Jan-03 00:00:00.0000, 1.017974199919917E+08, -3.063155623101193E+08, -2.573967524943659E+07,
2461050.500000000, A.D. 2026-Jan-10 00:00:00.0000, 1.129998181538434E+08, -3.000674544977378E+08, -2.491350106996061E+07,
2461057.500000000, A.D. 2026-Jan-17 00:00:00.0000, 1.240372793612616E+08, -2.933815390945394E+08, -2.405097500954150E+07,
2461064.500000000, A.D. 2026-Jan-24 00:00:00.0000, 1.348899766428073E+08, -2.862587769280165E+08, -2.315263457882981E+07,
2461071.500000000, A.D. 2026-Jan-31 00:00:00.0000, 1.455376614782740E+08, -2.787011079524862E+08, -2.221911649956152E+07,
2461078.500000000, A.D. 2026-Feb-07 00:00:00.0000, 1.559597128948045E+08, -2.707115149677960E+08, -2.125116142288142E+07,
2461085.500000000, A.D. 2026-Feb-14 00:00:00.0000, 1.661351946613557E+08, -2.622940862799011E+08, -2.024961840324304E+07,
2461092.500000000, A.D. 2026-Feb-21 00:00:00.0000, 1.760429212713178E+08, -2.534540758500512E+08, -1.921544902949135E+07,
2461099.500000000, A.D. 2026-Feb-28 00:00:00.0000, 1.856615318254552E+08, -2.441979588042824E+08, -1.814973092436519E+07,
2461106.500000000, A.D. 2026-Mar-07 00:00:00.0000, 1.949695698317173E+08, -2.345334831808966E+08, -1.705366048183246E+07,
2461113.500000000, A.D. 2026-Mar-14 00:00:00.0000, 2.039455716355338E+08, -2.244697190936301E+08, -1.592855518278907E+07,
2461120.500000000, A.D. 2026-Mar-21 00:00:00.0000, 2.125681650465923E+08, -2.140171012014172E+08, -1.477585530988565E+07,
2461127.500000000, A.D. 2026-Mar-28 00:00:00.0000, 2.208161757576700E+08, -2.031874622127726E+08, -1.359712468805158E+07,
2461134.500000000, A.D. 2026-Apr-04 00:00:00.0000, 2.286687403592428E+08, -1.919940571374253E+08, -1.239405037269053E+07,
2461141.500000000, A.D. 2026-Apr-11 00:00:00.0000, 2.361054254218263E+08, -1.804515774129680E+08, -1.116844124520968E+07,
2461148.500000000, A.D. 2026-Apr-18 00:00:00.0000, 2.431063517873130E+08, -1.685761537384225E+08, -9.922225446300916E+06,
2461155.500000000, A.D. 2026-Apr-25 00:00:00.0000, 2.496523228800385E+08, -1.563853465226825E+08, -8.657446578969389E+06,
2461162.500000000, A.D. 2026-May-02 00:00:00.0000, 2.557249556209235E+08, -1.438981230395583E+08, -7.376258633034050E+06,
2461169.500000000, A.D. 2026-May-09 00:00:00.0000, 2.613068124215640E+08, -1.311348205967584E+08, -6.080919615816183E+06,
2461176.500000000, A.D. 2026-May-16 00:00:00.0000, 2.663815328161262E+08, -1.181170950371767E+08, -4.773783904786035E+06,
2461183.500000000, A.D. 2026-May-23 00:00:00.0000, 2.709339628356685E+08, -1.048678532676993E+08, -3.457293261960112E+06,
2461190.500000000, A.D. 2026-May-30 00:00:00.0000, 2.749502780086001E+08, -9.141116951824319E+07, -2.133966340332352E+06,
2461197.500000000, A.D. 2026-Jun-06 00:00:00.0000, 2.784180975743913E+08, -7.777218894524519E+07, -8.063869989736825E+05,
2461204.500000000, A.D. 2026-Jun-13 00:00:00.0000, 2.813265914862907E+08, -6.397701904458138E+07, 5.228081441027336E+05,
2461211.500000000, A.D. 2026-Jun-20 00:00:00.0000, 2.836665776925300E+08, -5.005260694848108E+07, 1.850943068452019E+06,
2461218.500000000, A.D. 2026-Jun-27 00:00:00.0000, 2.854306061289907E+08, -3.602660428043950E+07, 3.175316580325909E+06,
2461225.500000000, A.D. 2026-Jul-04 00:00:00.0000, 2.866130277523872E+08, -2.192722198597219E+07, 4.493217162577887E+06,
2461232.500000000, A.D. 2026-Jul-11 00:00:00.0000, 2.872100474530279E+08, -7.783077186765829E+06, 5.801938203499985E+06,
2461239.500000000, A.D. 2026-Jul-18 00:00:00.0000, 2.872197598326812E+08, 6.376965825839134E+06, 7.098793376679129E+06,
2461246.500000000, A.D. 2026-Jul-25 00:00:00.0000, 2.866421671139712E+08, 2.052395815003899E+07, 8.381131940872251E+06,
2461253.500000000, A.D. 2026-Aug-01 00:00:00.0000, 2.854791788499910E+08, 3.462902992201800E+07, 9.646353721798945E+06,
2461260.500000000, A.D. 2026-Aug-08 00:00:00.0000, 2.837345936618045E+08, 4.866355256516049E+07, 1.089192352899802E+07,
2461267.500000000, A.D. 2026-Aug-15 00:00:00.0000, 2.814140638142428E+08, 6.259929767130365E+07, 1.211538479302857E+07,
2461274.500000000, A.D. 2026-Aug-22 00:00:00.0000, 2.785250426324897E+08, 7.640859143301558E+07, 1.331437239778602E+07,
2461281.500000000, A.D. 2026-Aug-29 00:00:00.0000, 2.750767136031480E+08, 9.006446113068432E+07, 1.448662463833565E+07,
2461288.500000000, A.D. 2026-Sep-05 00:00:00.0000, 2.710799047367308E+08, 1.035407688939886E+08, 1.562999373301262E+07,
$$EOE